[
  {
    "OBJECT_NAME": "STARLINK-1107",
    "OBJECT_ID": "20001BL",
    "EPOCH": "2025-11-11T08:00:03.000384",
    "MEAN_MOTION": 15.73568049,
    "ECCENTRICITY": 0.0006752,
    "INCLINATION": 53.0069,
    "RA_OF_ASC_NODE": 27.3964,
    "ARG_OF_PERICENTER": 348.7904,
    "MEAN_ANOMALY": 169.7777,
    "EPHEMERIS_TYPE": 0,
    "CLASSIFICATION_TYPE": "U",
    "NORAD_CAT_ID": 44972,
    "ELEMENT_SET_NO": 999,
    "REV_AT_EPOCH": 591,
    "BSTAR": 0.0018265,
    "MEAN_MOTION_DOT": 0.00268569,
    "MEAN_MOTION_DDOT": 0.0,
    "TLE_LINE1": "1 44972U 20001BL  25315.33336806  .00268569  00000+0  18265-2 0  9996",
    "TLE_LINE2": "2 44972  53.0069  27.3964 0006752 348.7904 169.7777 15.73568049  5914",
    "COMMENT": "Grouped by shell and plane from TLE"
  },
  {
    "OBJECT_NAME": "STARLINK-4404",
    "OBJECT_ID": "22084G",
    "EPOCH": "2025-11-11T06:25:57.893088",
    "MEAN_MOTION": 15.7903035,
    "ECCENTRICITY": 5.73e-05,
    "INCLINATION": 97.6458,
    "RA_OF_ASC_NODE": 23.6785,
    "ARG_OF_PERICENTER": 31.1035,
    "MEAN_ANOMALY": 329.0266,
    "EPHEMERIS_TYPE": 0,
    "CLASSIFICATION_TYPE": "U",
    "NORAD_CAT_ID": 53195,
    "ELEMENT_SET_NO": 999,
    "REV_AT_EPOCH": 18278,
    "BSTAR": 0.0,
    "MEAN_MOTION_DOT": -5.136e-05,
    "MEAN_MOTION_DDOT": 0.0,
    "TLE_LINE1": "1 53195U 22084G   25315.26803117 -.00005136  00000+0 -28236-4 0  9994",
    "TLE_LINE2": "2 53195  97.6458  23.6785 0000573  31.1035 329.0266 15.79030350182780",
    "COMMENT": "Grouped by shell and plane from TLE"
  },
  {
    "OBJECT_NAME": "STARLINK-4407",
    "OBJECT_ID": "22084H",
    "EPOCH": "2025-11-11T04:10:20.652960",
    "MEAN_MOTION": 15.79044734,
    "ECCENTRICITY": 6.58e-05,
    "INCLINATION": 97.6439,
    "RA_OF_ASC_NODE": 24.1295,
    "ARG_OF_PERICENTER": 36.3238,
    "MEAN_ANOMALY": 323.8073,
    "EPHEMERIS_TYPE": 0,
    "CLASSIFICATION_TYPE": "U",
    "NORAD_CAT_ID": 53196,
    "ELEMENT_SET_NO": 999,
    "REV_AT_EPOCH": 18278,
    "BSTAR": 9.8264e-06,
    "MEAN_MOTION_DOT": 1.588e-05,
    "MEAN_MOTION_DDOT": 0.0,
    "TLE_LINE1": "1 53196U 22084H   25315.17385015  .00001588  00000+0  98264-5 0  9991",
    "TLE_LINE2": "2 53196  97.6439  24.1295 0000658  36.3238 323.8073 15.79044734182787",
    "COMMENT": "Grouped by shell and plane from TLE"
  },
  {
    "OBJECT_NAME": "STARLINK-11168 [DTC]",
    "OBJECT_ID": "24124A",
    "EPOCH": "2025-11-11T04:35:19.028544",
    "MEAN_MOTION": 15.69706361,
    "ECCENTRICITY": 0.0001234,
    "INCLINATION": 53.1582,
    "RA_OF_ASC_NODE": 25.3293,
    "ARG_OF_PERICENTER": 143.7457,
    "MEAN_ANOMALY": 216.3645,
    "EPHEMERIS_TYPE": 0,
    "CLASSIFICATION_TYPE": "U",
    "NORAD_CAT_ID": 60183,
    "ELEMENT_SET_NO": 999,
    "REV_AT_EPOCH": 7911,
    "BSTAR": 9.5885e-06,
    "MEAN_MOTION_DOT": 5.73e-06,
    "MEAN_MOTION_DDOT": 0.0,
    "TLE_LINE1": "1 60183U 24124A   25315.19119246  .00000573  00000+0  95885-5 0  9994",
    "TLE_LINE2": "2 60183  53.1582  25.3293 0001234 143.7457 216.3645 15.69706361 79118",
    "COMMENT": "Grouped by shell and plane from TLE"
  },
  {
    "OBJECT_NAME": "STARLINK-11187 [DTC]",
    "OBJECT_ID": "24124B",
    "EPOCH": "2025-11-11T04:28:15.385152",
    "MEAN_MOTION": 15.69702424,
    "ECCENTRICITY": 0.0001128,
    "INCLINATION": 53.1596,
    "RA_OF_ASC_NODE": 25.2994,
    "ARG_OF_PERICENTER": 85.4959,
    "MEAN_ANOMALY": 274.6188,
    "EPHEMERIS_TYPE": 0,
    "CLASSIFICATION_TYPE": "U",
    "NORAD_CAT_ID": 60184,
    "ELEMENT_SET_NO": 999,
    "REV_AT_EPOCH": 7792,
    "BSTAR": 1.5117000000000001e-05,
    "MEAN_MOTION_DOT": 1.242e-05,
    "MEAN_MOTION_DDOT": 0.0,
    "TLE_LINE1": "1 60184U 24124B   25315.18628918  .00001242  00000+0  15117-4 0  9998",
    "TLE_LINE2": "2 60184  53.1596  25.2994 0001128  85.4959 274.6188 15.69702424 77924",
    "COMMENT": "Grouped by shell and plane from TLE"
  },
  {
    "OBJECT_NAME": "STARLINK-11180 [DTC]",
    "OBJECT_ID": "24124C",
    "EPOCH": "2025-11-11T05:52:52.031424",
    "MEAN_MOTION": 15.69715527,
    "ECCENTRICITY": 7.7e-05,
    "INCLINATION": 53.159,
    "RA_OF_ASC_NODE": 24.9553,
    "ARG_OF_PERICENTER": 58.9879,
    "MEAN_ANOMALY": 301.1215,
    "EPHEMERIS_TYPE": 0,
    "CLASSIFICATION_TYPE": "U",
    "NORAD_CAT_ID": 60185,
    "ELEMENT_SET_NO": 999,
    "REV_AT_EPOCH": 7793,
    "BSTAR": 4.857600000000001e-06,
    "MEAN_MOTION_DOT": 1e-08,
    "MEAN_MOTION_DDOT": 0.0,
    "TLE_LINE1": "1 60185U 24124C   25315.24504666  .00000001  00000+0  48576-5 0  9997",
    "TLE_LINE2": "2 60185  53.1590  24.9553 0000770  58.9879 301.1215 15.69715527 77930",
    "COMMENT": "Grouped by shell and plane from TLE"
  },
  {
    "OBJECT_NAME": "STARLINK-11197 [DTC]",
    "OBJECT_ID": "24124D",
    "EPOCH": "2025-11-10T12:57:17.788608",
    "MEAN_MOTION": 15.69708117,
    "ECCENTRICITY": 0.0001219,
    "INCLINATION": 53.1594,
    "RA_OF_ASC_NODE": 28.3706,
    "ARG_OF_PERICENTER": 102.8071,
    "MEAN_ANOMALY": 257.3084,
    "EPHEMERIS_TYPE": 0,
    "CLASSIFICATION_TYPE": "U",
    "NORAD_CAT_ID": 60186,
    "ELEMENT_SET_NO": 999,
    "REV_AT_EPOCH": 7782,
    "BSTAR": 0.0,
    "MEAN_MOTION_DOT": -1.914e-05,
    "MEAN_MOTION_DDOT": 0.0,
    "TLE_LINE1": "1 60186U 24124D   25314.53978922 -.00001914  00000+0 -10946-4 0  9994",
    "TLE_LINE2": "2 60186  53.1594  28.3706 0001219 102.8071 257.3084 15.69708117 77826",
    "COMMENT": "Grouped by shell and plane from TLE"
  },
  {
    "OBJECT_NAME": "STARLINK-11194 [DTC]",
    "OBJECT_ID": "24124E",
    "EPOCH": "2025-11-10T11:18:32.005728",
    "MEAN_MOTION": 15.69719823,
    "ECCENTRICITY": 0.0001033,
    "INCLINATION": 53.159,
    "RA_OF_ASC_NODE": 28.6529,
    "ARG_OF_PERICENTER": 97.4597,
    "MEAN_ANOMALY": 262.6539,
    "EPHEMERIS_TYPE": 0,
    "CLASSIFICATION_TYPE": "U",
    "NORAD_CAT_ID": 60187,
    "ELEMENT_SET_NO": 999,
    "REV_AT_EPOCH": 7781,
    "BSTAR": 8.3196e-06,
    "MEAN_MOTION_DOT": 4.2e-06,
    "MEAN_MOTION_DDOT": 0.0,
    "TLE_LINE1": "1 60187U 24124E   25314.47120377  .00000420  00000+0  83196-5 0  9998",
    "TLE_LINE2": "2 60187  53.1590  28.6529 0001033  97.4597 262.6539 15.69719823 77814",
    "COMMENT": "Grouped by shell and plane from TLE"
  },
  {
    "OBJECT_NAME": "STARLINK-11189 [DTC]",
    "OBJECT_ID": "24124F",
    "EPOCH": "2025-11-11T05:31:49.609920",
    "MEAN_MOTION": 15.69713834,
    "ECCENTRICITY": 0.0001615,
    "INCLINATION": 53.1588,
    "RA_OF_ASC_NODE": 25.5884,
    "ARG_OF_PERICENTER": 22.9004,
    "MEAN_ANOMALY": 337.2086,
    "EPHEMERIS_TYPE": 0,
    "CLASSIFICATION_TYPE": "U",
    "NORAD_CAT_ID": 60188,
    "ELEMENT_SET_NO": 999,
    "REV_AT_EPOCH": 7792,
    "BSTAR": 3.8368e-06,
    "MEAN_MOTION_DOT": -1.25e-06,
    "MEAN_MOTION_DDOT": 0.0,
    "TLE_LINE1": "1 60188U 24124F   25315.23043530 -.00000125  00000+0  38368-5 0  9993",
    "TLE_LINE2": "2 60188  53.1588  25.5884 0001615  22.9004 337.2086 15.69713834 77928",
    "COMMENT": "Grouped by shell and plane from TLE"
  },
  {
    "OBJECT_NAME": "STARLINK-11183 [DTC]",
    "OBJECT_ID": "24124G",
    "EPOCH": "2025-11-10T14:07:58.687680",
    "MEAN_MOTION": 15.69675557,
    "ECCENTRICITY": 0.0001764,
    "INCLINATION": 53.1589,
    "RA_OF_ASC_NODE": 28.6957,
    "ARG_OF_PERICENTER": 67.6045,
    "MEAN_ANOMALY": 292.516,
    "EPHEMERIS_TYPE": 0,
    "CLASSIFICATION_TYPE": "U",
    "NORAD_CAT_ID": 60189,
    "ELEMENT_SET_NO": 999,
    "REV_AT_EPOCH": 7782,
    "BSTAR": 0.0,
    "MEAN_MOTION_DOT": -4.527e-05,
    "MEAN_MOTION_DDOT": 0.0,
    "TLE_LINE1": "1 60189U 24124G   25314.58887370 -.00004527  00000+0 -32565-4 0  9992",
    "TLE_LINE2": "2 60189  53.1589  28.6957 0001764  67.6045 292.5160 15.69675557 77825",
    "COMMENT": "Grouped by shell and plane from TLE"
  },
  {
    "OBJECT_NAME": "STARLINK-11179 [DTC]",
    "OBJECT_ID": "24124H",
    "EPOCH": "2025-11-11T05:17:41.494560",
    "MEAN_MOTION": 15.69716231,
    "ECCENTRICITY": 9.17e-05,
    "INCLINATION": 53.1582,
    "RA_OF_ASC_NODE": 25.5236,
    "ARG_OF_PERICENTER": 77.2069,
    "MEAN_ANOMALY": 282.9051,
    "EPHEMERIS_TYPE": 0,
    "CLASSIFICATION_TYPE": "U",
    "NORAD_CAT_ID": 60190,
    "ELEMENT_SET_NO": 999,
    "REV_AT_EPOCH": 7792,
    "BSTAR": 3.5653000000000006e-05,
    "MEAN_MOTION_DOT": 3.734e-05,
    "MEAN_MOTION_DDOT": 0.0,
    "TLE_LINE1": "1 60190U 24124H   25315.22061915  .00003734  00000+0  35653-4 0  9993",
    "TLE_LINE2": "2 60190  53.1582  25.5236 0000917  77.2069 282.9051 15.69716231 77926",
    "COMMENT": "Grouped by shell and plane from TLE"
  },
  {
    "OBJECT_NAME": "STARLINK-11175 [DTC]",
    "OBJECT_ID": "24124J",
    "EPOCH": "2025-11-11T05:10:37.907328",
    "MEAN_MOTION": 15.69721942,
    "ECCENTRICITY": 0.000107,
    "INCLINATION": 53.1578,
    "RA_OF_ASC_NODE": 25.491,
    "ARG_OF_PERICENTER": 88.0105,
    "MEAN_ANOMALY": 272.1035,
    "EPHEMERIS_TYPE": 0,
    "CLASSIFICATION_TYPE": "U",
    "NORAD_CAT_ID": 60191,
    "ELEMENT_SET_NO": 999,
    "REV_AT_EPOCH": 7792,
    "BSTAR": 1.7705e-05,
    "MEAN_MOTION_DOT": 1.558e-05,
    "MEAN_MOTION_DDOT": 0.0,
    "TLE_LINE1": "1 60191U 24124J   25315.21571652  .00001558  00000+0  17705-4 0  9997",
    "TLE_LINE2": "2 60191  53.1578  25.4910 0001070  88.0105 272.1035 15.69721942 77920",
    "COMMENT": "Grouped by shell and plane from TLE"
  },
  {
    "OBJECT_NAME": "STARLINK-11173 [DTC]",
    "OBJECT_ID": "24124K",
    "EPOCH": "2025-11-10T10:43:21.423072",
    "MEAN_MOTION": 15.69723587,
    "ECCENTRICITY": 0.0001121,
    "INCLINATION": 53.1594,
    "RA_OF_ASC_NODE": 29.2253,
    "ARG_OF_PERICENTER": 73.9304,
    "MEAN_ANOMALY": 286.1837,
    "EPHEMERIS_TYPE": 0,
    "CLASSIFICATION_TYPE": "U",
    "NORAD_CAT_ID": 60192,
    "ELEMENT_SET_NO": 999,
    "REV_AT_EPOCH": 7780,
    "BSTAR": 1.4160000000000002e-05,
    "MEAN_MOTION_DOT": 1.128e-05,
    "MEAN_MOTION_DDOT": 0.0,
    "TLE_LINE1": "1 60192U 24124K   25314.44677573  .00001128  00000+0  14160-4 0  9996",
    "TLE_LINE2": "2 60192  53.1594  29.2253 0001121  73.9304 286.1837 15.69723587 77801",
    "COMMENT": "Grouped by shell and plane from TLE"
  }
]